GLOBALSTAR M045         
1 25676U 99019A   25088.70419633 -.00000050  00000+0  38513-3 0  9998
2 25676  51.9957 171.8132 0000756 103.3265  59.3411 12.27059368183878
GLOBALSTAR M019         
1 25677U 99019B   25088.89750951  .00000070  00000+0  16698-2 0  9990
2 25677  51.9876 296.0496 0001605 128.8113 336.2194 12.13874110175703
GLOBALSTAR M044         
1 25678U 99019C   25088.17483910 -.00000091  00000+0 -10177-3 0  9992
2 25678  51.9953 239.4075 0005772 240.8438 288.7148 11.90248068161793
GLOBALSTAR M042         
1 25679U 99019D   25088.90991381 -.00000070  00000+0  20634-3 0  9995
2 25679  52.0004 274.7573 0003609 127.1221  17.3631 12.22081288175638
GLOBALSTAR M025         
1 25770U 99031A   25088.17895681 -.00000078  00000+0 -32672-3 0  9990
2 25770  51.9855 344.6175 0001932  32.5392  85.8384 11.22558404472725
GLOBALSTAR M049         
1 25771U 99031B   25088.17429265 -.00000123  00000+0 -20085-2 0  9997
2 25771  51.9911  15.3676 0002380 235.6399 124.4173 11.12114388108526
GLOBALSTAR M047         
1 25772U 99031C   25088.23097196 -.00000051  00000+0  52224-3 0  9999
2 25772  51.9870  19.8476 0016550 124.3870 235.8503 11.31926880462054
GLOBALSTAR M052         
1 25773U 99031D   25088.34300068 -.00000009  00000+0  18954-2 0  9991
2 25773  51.9836 124.7848 0002240  45.3893 328.7755 11.15059100469607
